{"fetched_at":"2026-07-16T17:46:47.695Z","source":"https://celestrak.org/NORAD/elements/gp.php?NAME=LEGION&FORMAT=JSON","constellation":"maxar-legion","records":[{"OBJECT_NAME":"LEGION 1","OBJECT_ID":"2024-081A","EPOCH":"2026-07-16T06:06:35.438112","CLASSIFICATION_TYPE":"U","MEAN_MOTION":15.16847422,"ECCENTRICITY":0.0007726,"INCLINATION":97.5011,"RA_OF_ASC_NODE":274.8033,"ARG_OF_PERICENTER":265.2677,"MEAN_ANOMALY":94.7674,"EPHEMERIS_TYPE":0,"NORAD_CAT_ID":59625,"ELEMENT_SET_NO":999,"REV_AT_EPOCH":12194,"BSTAR":0.000095781917,"MEAN_MOTION_DOT":0.00001818,"MEAN_MOTION_DDOT":0},{"OBJECT_NAME":"LEGION 2","OBJECT_ID":"2024-081B","EPOCH":"2026-07-16T05:15:22.370688","CLASSIFICATION_TYPE":"U","MEAN_MOTION":15.1682633,"ECCENTRICITY":0.00102873,"INCLINATION":97.5011,"RA_OF_ASC_NODE":274.8649,"ARG_OF_PERICENTER":229.6219,"MEAN_ANOMALY":130.4117,"EPHEMERIS_TYPE":0,"NORAD_CAT_ID":59626,"ELEMENT_SET_NO":999,"REV_AT_EPOCH":12194,"BSTAR":0.000095905522,"MEAN_MOTION_DOT":0.0000182,"MEAN_MOTION_DDOT":0},{"OBJECT_NAME":"LEGION 3","OBJECT_ID":"2024-146A","EPOCH":"2026-07-16T04:38:27.097152","CLASSIFICATION_TYPE":"U","MEAN_MOTION":15.15658436,"ECCENTRICITY":0.00081116,"INCLINATION":45.0018,"RA_OF_ASC_NODE":235.0382,"ARG_OF_PERICENTER":339.4365,"MEAN_ANOMALY":20.6186,"EPHEMERIS_TYPE":0,"NORAD_CAT_ID":60452,"ELEMENT_SET_NO":999,"REV_AT_EPOCH":10642,"BSTAR":0.000082207943,"MEAN_MOTION_DOT":0.00001326,"MEAN_MOTION_DDOT":0},{"OBJECT_NAME":"LEGION 4","OBJECT_ID":"2024-146B","EPOCH":"2026-07-16T07:47:52.440000","CLASSIFICATION_TYPE":"U","MEAN_MOTION":15.15685678,"ECCENTRICITY":0.00089861,"INCLINATION":45.0028,"RA_OF_ASC_NODE":326.2004,"ARG_OF_PERICENTER":120.801,"MEAN_ANOMALY":239.3754,"EPHEMERIS_TYPE":0,"NORAD_CAT_ID":60453,"ELEMENT_SET_NO":999,"REV_AT_EPOCH":10529,"BSTAR":0.000094550749,"MEAN_MOTION_DOT":0.00001567,"MEAN_MOTION_DDOT":0},{"OBJECT_NAME":"LEGION 5","OBJECT_ID":"2025-025A","EPOCH":"2026-07-16T06:13:01.430976","CLASSIFICATION_TYPE":"U","MEAN_MOTION":15.15700635,"ECCENTRICITY":0.00081128,"INCLINATION":45.0016,"RA_OF_ASC_NODE":145.513,"ARG_OF_PERICENTER":296.6847,"MEAN_ANOMALY":63.3201,"EPHEMERIS_TYPE":0,"NORAD_CAT_ID":62900,"ELEMENT_SET_NO":999,"REV_AT_EPOCH":7890,"BSTAR":0.000057770501,"MEAN_MOTION_DOT":0.00000855,"MEAN_MOTION_DDOT":0},{"OBJECT_NAME":"LEGION 6","OBJECT_ID":"2025-025B","EPOCH":"2026-07-16T01:27:03.509856","CLASSIFICATION_TYPE":"U","MEAN_MOTION":15.15690707,"ECCENTRICITY":0.00107932,"INCLINATION":45.0015,"RA_OF_ASC_NODE":55.7242,"ARG_OF_PERICENTER":280.9679,"MEAN_ANOMALY":78.9985,"EPHEMERIS_TYPE":0,"NORAD_CAT_ID":62901,"ELEMENT_SET_NO":999,"REV_AT_EPOCH":8001,"BSTAR":0.00009857103,"MEAN_MOTION_DOT":0.00001645,"MEAN_MOTION_DDOT":0}]}
